[{"OBJECT_NAME":"SKYKRAFT-4D","OBJECT_ID":"2025-154K","EPOCH":"2026-03-09T18:12:41.751648","MEAN_MOTION":14.94999025,"ECCENTRICITY":0.00041317,"INCLINATION":97.6775,"RA_OF_ASC_NODE":134.9839,"ARG_OF_PERICENTER":213.6612,"MEAN_ANOMALY":146.4347,"EPHEMERIS_TYPE":0,"CLASSIFICATION_TYPE":"U","NORAD_CAT_ID":64898,"ELEMENT_SET_NO":999,"REV_AT_EPOCH":3243,"BSTAR":0.00061950439,"MEAN_MOTION_DOT":6.721e-5,"MEAN_MOTION_DDOT":0},{"OBJECT_NAME":"MACSAT 2 (M 2)","OBJECT_ID":"1990-043B","EPOCH":"2026-03-09T23:13:24.152160","MEAN_MOTION":14.80502521,"ECCENTRICITY":0.00823046,"INCLINATION":89.7422,"RA_OF_ASC_NODE":248.3117,"ARG_OF_PERICENTER":163.6376,"MEAN_ANOMALY":196.7535,"EPHEMERIS_TYPE":0,"CLASSIFICATION_TYPE":"U","NORAD_CAT_ID":20608,"ELEMENT_SET_NO":999,"REV_AT_EPOCH":92371,"BSTAR":0.00022904722,"MEAN_MOTION_DOT":1.876e-5,"MEAN_MOTION_DDOT":0}]
